[{"OBJECT_NAME":"STARLINK-4632","OBJECT_ID":"2022-105AH","EPOCH":"2026-03-09T15:44:06.795744","MEAN_MOTION":15.05633478,"ECCENTRICITY":0.0002937,"INCLINATION":97.6024,"RA_OF_ASC_NODE":311.2676,"ARG_OF_PERICENTER":86.7911,"MEAN_ANOMALY":273.3651,"EPHEMERIS_TYPE":0,"CLASSIFICATION_TYPE":"U","NORAD_CAT_ID":53679,"ELEMENT_SET_NO":999,"REV_AT_EPOCH":19330,"BSTAR":-0.00011887,"MEAN_MOTION_DOT":-1.775e-5,"MEAN_MOTION_DDOT":0},{"OBJECT_NAME":"COSMOS 2251 DEB","OBJECT_ID":"1993-036BRU","EPOCH":"2026-02-21T14:09:45.153216","MEAN_MOTION":14.99001579,"ECCENTRICITY":0.0017259,"INCLINATION":74.0061,"RA_OF_ASC_NODE":146.9269,"ARG_OF_PERICENTER":277.3195,"MEAN_ANOMALY":147.2685,"EPHEMERIS_TYPE":0,"CLASSIFICATION_TYPE":"U","NORAD_CAT_ID":38062,"ELEMENT_SET_NO":999,"REV_AT_EPOCH":64090,"BSTAR":0.0019091,"MEAN_MOTION_DOT":0.00023247,"MEAN_MOTION_DDOT":0}]
